OCEANSAT-2              
1 35931U 09051A   26196.00763782 -.00000099  00000+0 -42307-4 0  9992
2 35931  98.2320 180.0815 0017329 154.0205 206.1835 13.99656010883227
PLEIADES 1A             
1 38012U 11076F   26195.98136389 -.00000121  00000+0 -16249-4 0  9990
2 38012  98.1976 270.7094 0001692  79.8940 358.8427 14.58545777776044
PLEIADES 1B             
1 39019U 12068A   26196.00035141  .00000076  00000+0  26127-4 0  9991
2 39019  98.1948 270.6675 0001586  78.4689 281.6689 14.58533997724904
PATHFINDER 1            
1 41787U 16059E   26195.95240121  .00000278  00000+0  56631-4 0  9996
2 41787  97.8177 193.9768 0029800 116.4385 243.9883 14.67693013523780
PAZ                     
1 43215U 18020A   26195.90342096  .00000949  00000+0  48364-4 0  9992
2 43215  97.4455 202.8955 0001683  89.8275 270.3152 15.19157220465210
NOVASAR 1               
1 43619U 18071B   26195.94127486  .00000649  00000+0  62297-4 0  9992
2 43619  97.5045  67.1194 0001973  70.1413 290.0022 14.96272655427082
PLEIADES NEO 3          
1 48268U 21034A   26195.94145521 -.00000700  00000+0 -82384-4 0  9999
2 48268  97.8946 270.3085 0001305  92.8825 267.2538 14.81665400281763
PLEIADES NEO 4          
1 49070U 21073E   26195.90768476  .00000878  00000+0  11821-3 0  9991
2 49070  97.8945 270.2713 0001352  92.9900 267.1468 14.81673026265472
NOAA 21 (JPSS-2)        
1 54234U 22150A   26195.87571039 -.00000002  00000+0  19788-4 0  9990
2 54234  98.7060 134.1999 0002825 105.1319 255.0170 14.19540991190477
PARS 1                  
1 59065U 24039Q   26195.95191922  .00006752  00000+0  13879-3 0  9994
2 59065  97.4836 177.7603 0009803  27.7024 332.4746 15.46286466132932
